{
  "type": "FeatureCollection",
  "features": [
    {
      "type": "Feature",
      "properties": {
        "norad_id": 44873,
        "name": "CSG-1",
        "group": "resource",
        "lat": -20.551471346013685,
        "lon": -14.29460504433766,
        "alt_km": 628.2192512549082,
        "timestamp": "2025-12-13T08:49:15.351318+00:00",
        "meta_object_name": "CSG-1",
        "meta_object_id": "2019-092A",
        "meta_epoch": "2025-12-12T23:49:02.636832",
        "meta_mean_motion": 14.82164953,
        "meta_eccentricity": 0.00014479,
        "meta_inclination": 97.881,
        "meta_ra_of_asc_node": 168.3128,
        "meta_arg_of_pericenter": 84.9752,
        "meta_mean_anomaly": 275.1626,
        "meta_ephemeris_type": 0,
        "meta_classification_type": "U",
        "meta_norad_cat_id": 44873,
        "meta_element_set_no": 999,
        "meta_rev_at_epoch": 32389,
        "meta_bstar": 0.00012938447,
        "meta_mean_motion_dot": 9.78e-06,
        "meta_mean_motion_ddot": 0,
        "tle_line1": "1 44873U 19092A   25346.99239163  .00000978  00000+0  12938-3 0  9998",
        "tle_line2": "2 44873  97.8810 168.3128 0001447  84.9752 275.1626 14.82164953323898"
      },
      "geometry": {
        "type": "Point",
        "coordinates": [
          -14.29460504433766,
          -20.551471346013685
        ]
      }
    },
    {
      "type": "Feature",
      "properties": {
        "norad_id": 46277,
        "name": "NEMO-HD",
        "group": "resource",
        "lat": 48.75669800762293,
        "lon": -125.22730646821198,
        "alt_km": 440.45193099144853,
        "timestamp": "2025-12-13T08:49:15.351328+00:00",
        "meta_object_name": "NEMO-HD",
        "meta_object_id": "2020-061F",
        "meta_epoch": "2025-12-13T00:27:36.941184",
        "meta_mean_motion": 15.40335125,
        "meta_eccentricity": 0.00018528,
        "meta_inclination": 97.2215,
        "meta_ra_of_asc_node": 46.1133,
        "meta_arg_of_pericenter": 56.2525,
        "meta_mean_anomaly": 303.8898,
        "meta_ephemeris_type": 0,
        "meta_classification_type": "U",
        "meta_norad_cat_id": 46277,
        "meta_element_set_no": 999,
        "meta_rev_at_epoch": 29328,
        "meta_bstar": 0.00037624058,
        "meta_mean_motion_dot": 0.00015107,
        "meta_mean_motion_ddot": 0,
        "tle_line1": "1 46277U 20061F   25347.01917756  .00015107  00000+0  37624-3 0  9990",
        "tle_line2": "2 46277  97.2215  46.1133 0001852  56.2525 303.8898 15.40335125293285"
      },
      "geometry": {
        "type": "Point",
        "coordinates": [
          -125.22730646821198,
          48.75669800762293
        ]
      }
    },
    {
      "type": "Feature",
      "properties": {
        "norad_id": 46984,
        "name": "SENTINEL-6A",
        "group": "resource",
        "lat": 56.688186771053346,
        "lon": -61.576464333314,
        "alt_km": 1336.815338100001,
        "timestamp": "2025-12-13T08:49:15.351339+00:00",
        "meta_object_name": "SENTINEL-6A",
        "meta_object_id": "2020-086A",
        "meta_epoch": "2025-12-12T20:59:07.665792",
        "meta_mean_motion": 12.80930623,
        "meta_eccentricity": 0.0007733,
        "meta_inclination": 66.0389,
        "meta_ra_of_asc_node": 162.0284,
        "meta_arg_of_pericenter": 269.2327,
        "meta_mean_anomaly": 90.7802,
        "meta_ephemeris_type": 0,
        "meta_classification_type": "U",
        "meta_norad_cat_id": 46984,
        "meta_element_set_no": 999,
        "meta_rev_at_epoch": 23646,
        "meta_bstar": 0.00013400305,
        "meta_mean_motion_dot": -3e-07,
        "meta_mean_motion_ddot": 0,
        "tle_line1": "1 46984U 20086A   25346.87439428 -.00000030  00000+0  13400-3 0  9996",
        "tle_line2": "2 46984  66.0389 162.0284 0007733 269.2327  90.7802 12.80930623236460"
      },
      "geometry": {
        "type": "Point",
        "coordinates": [
          -61.576464333314,
          56.688186771053346
        ]
      }
    },
    {
      "type": "Feature",
      "properties": {
        "norad_id": 48079,
        "name": "GAOFEN-12 02",
        "group": "resource",
        "lat": 78.96612562207997,
        "lon": -152.58467751999558,
        "alt_km": 617.358999303081,
        "timestamp": "2025-12-13T08:49:15.351349+00:00",
        "meta_object_name": "GAOFEN-12 02",
        "meta_object_id": "2021-026A",
        "meta_epoch": "2025-12-13T00:16:21.073728",
        "meta_mean_motion": 14.80675726,
        "meta_eccentricity": 0.00035472,
        "meta_inclination": 97.9852,
        "meta_ra_of_asc_node": 341.0164,
        "meta_arg_of_pericenter": 100.7231,
        "meta_mean_anomaly": 259.4381,
        "meta_ephemeris_type": 0,
        "meta_classification_type": "U",
        "meta_norad_cat_id": 48079,
        "meta_element_set_no": 999,
        "meta_rev_at_epoch": 25421,
        "meta_bstar": 0.00011599243,
        "meta_mean_motion_dot": 8.39e-06,
        "meta_mean_motion_ddot": 0,
        "tle_line1": "1 48079U 21026A   25347.01135502  .00000839  00000+0  11599-3 0  9994",
        "tle_line2": "2 48079  97.9852 341.0164 0003547 100.7231 259.4381 14.80675726254214"
      },
      "geometry": {
        "type": "Point",
        "coordinates": [
          -152.58467751999558,
          78.96612562207997
        ]
      }
    },
    {
      "type": "Feature",
      "properties": {
        "norad_id": 48268,
        "name": "PLEIADES NEO 3",
        "group": "resource",
        "lat": 12.897133598541815,
        "lon": -118.38032175467892,
        "alt_km": 625.0065255513691,
        "timestamp": "2025-12-13T08:49:15.351360+00:00",
        "meta_object_name": "PLEIADES NEO 3",
        "meta_object_id": "2021-034A",
        "meta_epoch": "2025-12-12T23:57:59.263776",
        "meta_mean_motion": 14.81670095,
        "meta_eccentricity": 0.00013436,
        "meta_inclination": 97.894,
        "meta_ra_of_asc_node": 59.4355,
        "meta_arg_of_pericenter": 93.2352,
        "meta_mean_anomaly": 266.9014,
        "meta_ephemeris_type": 0,
        "meta_classification_type": "U",
        "meta_norad_cat_id": 48268,
        "meta_element_set_no": 999,
        "meta_rev_at_epoch": 25008,
        "meta_bstar": 0.00012380688,
        "meta_mean_motion_dot": 9.22e-06,
        "meta_mean_motion_ddot": 0,
        "tle_line1": "1 48268U 21034A   25346.99860259  .00000922  00000+0  12381-3 0  9996",
        "tle_line2": "2 48268  97.8940  59.4355 0001343  93.2352 266.9014 14.81670095250087"
      },
      "geometry": {
        "type": "Point",
        "coordinates": [
          -118.38032175467892,
          12.897133598541815
        ]
      }
    },
    {
      "type": "Feature",
      "properties": {
        "norad_id": 49070,
        "name": "PLEIADES NEO 4",
        "group": "resource",
        "lat": -13.079389890236842,
        "lon": 61.64250922916471,
        "alt_km": 628.7718523297008,
        "timestamp": "2025-12-13T08:49:15.351370+00:00",
        "meta_object_name": "PLEIADES NEO 4",
        "meta_object_id": "2021-073E",
        "meta_epoch": "2025-12-12T08:34:07.569120",
        "meta_mean_motion": 14.81676895,
        "meta_eccentricity": 0.00012379,
        "meta_inclination": 97.8941,
        "meta_ra_of_asc_node": 58.7994,
        "meta_arg_of_pericenter": 92.1719,
        "meta_mean_anomaly": 267.9635,
        "meta_ephemeris_type": 0,
        "meta_classification_type": "U",
        "meta_norad_cat_id": 49070,
        "meta_element_set_no": 999,
        "meta_rev_at_epoch": 23370,
        "meta_bstar": 3.8133e-06,
        "meta_mean_motion_dot": -2.2e-07,
        "meta_mean_motion_ddot": 0,
        "tle_line1": "1 49070U 21073E   25346.35703205 -.00000022  00000+0  38133-5 0  9995",
        "tle_line2": "2 49070  97.8941  58.7994 0001237  92.1719 267.9635 14.81676895233702"
      },
      "geometry": {
        "type": "Point",
        "coordinates": [
          61.64250922916471,
          -13.079389890236842
        ]
      }
    },
    {
      "type": "Feature",
      "properties": {
        "norad_id": 49260,
        "name": "LANDSAT 9",
        "group": "resource",
        "lat": -51.20926223187251,
        "lon": 65.81688919378156,
        "alt_km": 710.1125617640764,
        "timestamp": "2025-12-13T08:49:15.351381+00:00",
        "meta_object_name": "LANDSAT 9",
        "meta_object_id": "2021-088A",
        "meta_epoch": "2025-12-12T18:13:34.427136",
        "meta_mean_motion": 14.57098196,
        "meta_eccentricity": 0.00011742,
        "meta_inclination": 98.2095,
        "meta_ra_of_asc_node": 54.8703,
        "meta_arg_of_pericenter": 89.1031,
        "meta_mean_anomaly": 271.0302,
        "meta_ephemeris_type": 0,
        "meta_classification_type": "U",
        "meta_norad_cat_id": 49260,
        "meta_element_set_no": 999,
        "meta_rev_at_epoch": 22385,
        "meta_bstar": 0.00017250756,
        "meta_mean_motion_dot": 7.32e-06,
        "meta_mean_motion_ddot": 0,
        "tle_line1": "1 49260U 21088A   25346.75942624  .00000732  00000+0  17251-3 0  9999",
        "tle_line2": "2 49260  98.2095  54.8703 0001174  89.1031 271.0302 14.57098196223853"
      },
      "geometry": {
        "type": "Point",
        "coordinates": [
          65.81688919378156,
          -51.20926223187251
        ]
      }
    }
  ]
}